ONEWEB-0555             
1 56057U 23043M   25127.76348229 -.00000074  00000+0 -22801-3 0  9991
2 56057  87.9016 309.5852 0002358  92.9542 267.1859 13.16592987105619
ONEWEB-0557             
1 56058U 23043N   25127.77773484  .00000018  00000+0  13805-4 0  9999
2 56058  87.9011 309.6064 0002673  80.9707 279.1726 13.16593110105616
ONEWEB-0558             
1 56059U 23043P   25127.78560014  .00000065  00000+0  12544-3 0  9994
2 56059  87.9252 324.8363 0001416  99.3103 260.8191 13.21826483104680
ONEWEB-0559             
1 56060U 23043Q   25127.62315250  .00000020  00000+0  16572-4 0  9996
2 56060  87.9251 324.8616 0001386  81.7484 278.3807 13.21828710104677
ONEWEB-0566             
1 56061U 23043R   25127.84394610  .00000046  00000+0  80844-4 0  9999
2 56061  87.9250 324.8166 0001254  94.4473 265.6805 13.21826073104688
ONEWEB-0568             
1 56062U 23043S   25127.79514425  .00000144  00000+0  34274-3 0  9996
2 56062  87.9018 309.5686 0002072  93.4371 266.6997 13.16592548105633
ONEWEB-0574             
1 56063U 23043T   25127.83762344  .00000049  00000+0  87582-4 0  9992
2 56063  87.9249 324.8067 0001918  82.5239 277.6113 13.21823469104729
ONEWEB-0575             
1 56064U 23043U   25127.86480870  .00000121  00000+0  28241-3 0  9994
2 56064  87.9015 309.5674 0002123  81.8192 278.3179 13.16592673105639
ONEWEB-0576             
1 56065U 23043V   25127.76981425 -.00000020  00000+0 -85504-4 0  9992
2 56065  87.9015 309.5769 0002036  90.3248 269.8116 13.16593323105612
ONEWEB-0577             
1 56066U 23043W   25127.77614787  .00000019  00000+0  15808-4 0  9994
2 56066  87.9012 309.5758 0002259  76.4647 283.6736 13.16592311105644
ONEWEB-0578             
1 56067U 23043X   25127.82502090  .00000091  00000+0  18800-3 0  9998
2 56067  87.9252 324.8185 0001940  89.2172 270.9184 13.21827395104684
ONEWEB-0579             
1 56068U 23043Y   25127.58846114  .00000083  00000+0  16827-3 0  9998
2 56068  87.9249 324.8530 0001524  83.3862 276.7445 13.21826957104669
ONEWEB-0581             
1 56069U 23043Z   25127.85847796 -.00000112  00000+0 -32732-3 0  9994
2 56069  87.9012 309.5898 0001863  76.8720 283.2618 13.16591264105627
ONEWEB-0609             
1 56070U 23043AA  25127.87425753  .00000139  00000+0  33633-3 0  9991
2 56070  87.9064 340.0007 0001740  88.9887 271.1443 13.15547925103141
ONEWEB-0613             
1 56071U 23043AB  25127.86949743  .00000096  00000+0  22174-3 0  9991
2 56071  87.9068 340.0108 0001574  83.0137 277.1173 13.15547710103145
ONEWEB-0630             
1 56072U 23043AC  25127.86475308  .00000021  00000+0  22180-4 0  9999
2 56072  87.9063 339.9909 0001455  87.0104 273.1192 13.15548506103133
ONEWEB-0632             
1 56073U 23043AD  25127.86000232 -.00000059  00000+0 -19143-3 0  9997
2 56073  87.9064 340.0116 0001753  78.1766 281.9561 13.15548561103132
ONEWEB-0633             
1 56074U 23043AE  25127.85365809 -.00000047  00000+0 -15824-3 0  9990
2 56074  87.9062 339.9822 0001395  94.6995 265.4294 13.15548461104029
ONEWEB-0634             
1 56075U 23043AF  25127.83939466 -.00000066  00000+0 -20884-3 0  9998
2 56075  87.9071 340.0176 0001833  97.3296 262.8043 13.15547354104018
ONEWEB-0635             
1 56076U 23043AG  25127.83464162 -.00000086  00000+0 -26222-3 0  9999
2 56076  87.9041 340.0153 0001870  76.0552 284.0786 13.15549452104045
ONEWEB-0636             
1 56077U 23043AH  25127.59854250  .00000048  00000+0  92297-4 0  9996
2 56077  87.9050 340.0679 0001854  77.6300 282.5038 13.15547398103082
ONEWEB-0637             
1 56078U 23043AJ  25127.66827909  .00000044  00000+0  82815-4 0  9997
2 56078  87.9071 340.0504 0002086  83.3306 276.8061 13.15548897103112
ONEWEB-0647             
1 56079U 23043AK  25127.58745585  .00000136  00000+0  32700-3 0  9997
2 56079  87.9067 340.0770 0001665  79.2973 280.8345 13.15547029103092
ONEWEB-0651             
1 56080U 23043AL  25127.88693648  .00000179  00000+0  44217-3 0  9997
2 56080  87.9070 340.0042 0001999  79.3707 280.7648 13.15547496104337
ONEWEB-0718             
1 56081U 23043AM  25127.65401363  .00000171  00000+0  42089-3 0  9991
2 56081  87.9067 340.0342 0001986 100.4336 259.7018 13.15548543103113
ONEWEB-0561             
1 56710U 23068A   25127.89894940  .00000004  00000+0 -22110-4 0  9990
2 56710  87.9278 355.1724 0001876  66.2686 293.8644 13.20771495 96005
ONEWEB-0668             
1 56711U 23068B   25127.86086857  .00000208  00000+0  51093-3 0  9994
2 56711  87.9012 309.5456 0002208 102.3731 257.7647 13.16594697 98444
ONEWEB-0676             
1 56712U 23068C   25127.53707502  .00000024  00000+0  30088-4 0  9994
2 56712  87.9017 309.6399 0001781  75.6289 284.5040 13.16593988 98326
ONEWEB-0677             
1 56713U 23068D   25127.88790225  .00000080  00000+0  16391-3 0  9999
2 56713  87.9283 355.1492 0002058  79.2380 280.8985 13.20772385 96300
ONEWEB-0678             
1 56714U 23068E   25127.85048833 -.00000181  00000+0 -51432-3 0  9997
2 56714  87.9069 339.9651 0001432  81.8019 278.3273 13.15547315 96694
ONEWEB-0679             
1 56715U 23068F   25127.73418700  .00000189  00000+0  46083-3 0  9991
2 56715  87.9014 309.5940 0002326  88.2178 271.9219 13.16592298 98376
ONEWEB-0680             
1 56716U 23068G   25127.59162664  .00000075  00000+0  15089-3 0  9997
2 56716  87.9229 324.8672 0002427  98.1956 261.9453 13.21827246 97517
ONEWEB-0681             
1 56717U 23068H   25127.82896878  .00000037  00000+0  57095-4 0  9997
2 56717  87.9251 324.8372 0002351  66.4552 293.6829 13.21826363 97536
ONEWEB-0682             
1 56718U 23068J   25127.87663501  .00000104  00000+0  24223-3 0  9999
2 56718  87.9066 339.9921 0002287  91.5267 268.6125 13.15547893 96865
ONEWEB-0683             
1 56719U 23068K   25127.66983722  .00000042  00000+0  76294-4 0  9994
2 56719  87.9069 340.0045 0002034  91.5319 268.6044 13.15547735 96109
ONEWEB-0684             
1 56720U 23068L   25127.82988373  .00000050  00000+0  99963-4 0  9998
2 56720  87.9042 340.0012 0000622 135.7144 224.4036 13.15548074 95954
ONEWEB-0686             
1 56721U 23068M   25127.49590488  .00000117  00000+0  27132-3 0  9990
2 56721  87.9011 309.6784 0001815 100.9542 259.1793 13.16591968 98330
ONEWEB-0694             
1 56722U 23068N   25127.76664808  .00000016  00000+0  70916-5 0  9997
2 56722  87.9010 309.5419 0002168  96.3500 263.7877 13.16593405 98420
ONEWEB-0696             
1 56723U 23068P   25127.86315992 -.00000033  00000+0 -12094-3 0  9998
2 56723  87.9064 340.0181 0001484  82.3929 277.7370 13.15547029 96078
ONEWEB-0703             
1 56724U 23068Q   25127.87267914 -.00000510  00000+0 -13900-2 0  9996
2 56724  87.9048 340.0208 0001363  48.5354 311.5893 13.15551283 96662
ONEWEB-0721             
1 56725U 23068R   25127.75284610  .00000023  00000+0  20075-4 0  9996
2 56725  86.6838 214.7021 0001995 102.8085 257.3271 13.22435323105057
ONEWEB-0015             
1 61594U 24188A   25127.86846533  .00000924  00000+0  25717-2 0  9996
2 61594  87.8833 101.8704 0002434  74.3210 285.8187 13.11423460 29415
ONEWEB-0687             
1 61595U 24188B   25127.84060781 -.00000781  00000+0 -57124-3 0  9999
2 61595  87.3126  88.2464 0004005 266.0556  94.0162 13.97151877 32349
ONEWEB-0688             
1 61596U 24188C   25127.36010817 -.00023186  00000+0 -16707-1 0  9996
2 61596  87.2921  88.2972 0001774 295.8092  64.2901 13.97010383 32280
ONEWEB-0689             
1 61597U 24188D   25127.90237069  .00000335  00000+0  91017-3 0  9995
2 61597  87.8773 101.8838 0002340  92.5174 267.6222 13.11422174 31339
ONEWEB-0690             
1 61598U 24188E   25127.91256227  .00000576  00000+0  15890-2 0  9995
2 61598  87.8822 101.8042 0001439  67.8055 292.3226 13.11419416 31517
ONEWEB-0691             
1 61599U 24188F   25127.44971193  .00000558  00000+0  15388-2 0  9992
2 61599  87.8720 101.9679 0002330  79.1210 281.0180 13.11422626 31300
ONEWEB-0692             
1 61600U 24188G   25127.47006553  .00000154  00000+0  39896-3 0  9990
2 61600  87.8798 101.9818 0001989 114.7990 245.3345 13.11421479 31292
ONEWEB-0693             
1 61601U 24188H   25127.87235077  .00000115  00000+0  69949-4 0  9990
2 61601  87.3113  88.3041 0002581 306.0629  54.0308 13.97510067 32335
ONEWEB-0695             
1 61602U 24188J   25127.90407850  .00000404  00000+0  11030-2 0  9992
2 61602  87.8807 101.8755 0002262 101.7595 258.3787 13.11420388 31344
ONEWEB-0697             
1 61603U 24188K   25127.47851053 -.00000122  00000+0 -38091-3 0  9999
2 61603  87.8784 101.9706 0001824 111.7501 248.3822 13.11412952 31276
ONEWEB-0698             
1 61604U 24188L   25127.83796155  .00000601  00000+0  16596-2 0  9996
2 61604  87.8798 101.9025 0001081 108.3689 251.7556 13.11419892 31340
ONEWEB-0699             
1 61605U 24188M   25127.52811353 -.00000551  00000+0 -16149-2 0  9991
2 61605  87.8787 117.1352 0001580  93.8421 266.2887 13.10370097 30188
ONEWEB-0700             
1 61606U 24188N   25127.91156246 -.00000118  00000+0 -37391-3 0  9990
2 61606  87.8702 117.0074 0002327 105.1806 254.9579 13.10374680 30229
ONEWEB-0701             
1 61607U 24188P   25127.69907050 -.00000585  00000+0 -17115-2 0  9992
2 61607  87.8794 117.1082 0001810 112.5704 247.5615 13.10373287 30205
ONEWEB-0702             
1 61608U 24188Q   25127.42596628 -.00000276  00000+0 -81587-3 0  9991
2 61608  87.8730 101.9945 0002138 112.5007 247.6347 13.11420093 31309
ONEWEB-0704             
1 61609U 24188R   25127.91653845 -.00000598  00000+0 -17505-2 0  9996
2 61609  87.8818 116.9834 0002317 113.6594 246.4777 13.10371786 30218
ONEWEB-0705             
1 61610U 24188S   25127.92151735 -.00000701  00000+0 -20444-2 0  9992
2 61610  87.8778 117.0561 0003010 102.2784 257.8681 13.10373285 22385
ONEWEB-0706             
1 61611U 24188T   25127.51898919 -.00000144  00000+0 -44884-3 0  9996
2 61611  87.8800 117.1429 0002195  99.0290 261.1085 13.10368910 30254
